HST                     
1 20580U 90037B   26158.29828937  .00006010  00000+0  18954-3 0  9990
2 20580  28.4712 148.1547 0001938  44.7656 315.3096 15.30642118787059
POLAR                   
1 23802U 96013A   26158.02404708  .00000119  00000+0  00000+0 0  9990
2 23802  79.8421 227.1715 6460469 209.4313  89.2174  1.29846148144722
SWAS                    
1 25560U 98071A   26158.54028670  .00004943  00000+0  31330-3 0  9999
2 25560  69.8961 252.3954 0008932 268.6418  91.3722 15.09564470495818
CXO                     
1 25867U 99040B   26158.79821798  .00000708  00000+0  00000+0 0  9996
2 25867  55.9928 116.9568 7854200 310.2595   0.2905  0.37800379 17286
XMM-NEWTON              
1 25989U 99066A   26157.37875651  .00000096  00000+0  00000+0 0  9999
2 25989  64.5482 283.1267 4678331  65.0797   0.1118  0.50125302 22956
TERRA                   
1 25994U 99068A   26158.42036111  .00000461  00000+0  10279-3 0  9993
2 25994  97.9460 208.3535 0000899 238.3915 132.2520 14.61095687408182
CLUSTER II-FM7 (SAMBA)  
1 26410U 00041A   26159.21452506  .00004289  00000+0  00000+0 0  9997
2 26410 149.9021  49.0985 9044304 266.1693 359.9197  0.44821039 20278
CLUSTER II-FM8 (TANGO)  
1 26464U 00045B   26157.18212104  .00004544  00000+0  00000+0 0  9996
2 26464 150.1407  49.6985 9046201 266.6195   3.2041  0.44406384 20263
ODIN                    
1 26702U 01007A   26158.36867641  .00156566  00000+0  11487-2 0  9999
2 26702  97.3853 198.7034 0006399 156.6271 203.5285 15.72644851387850
TIMED                   
1 26998U 01055B   26157.63783829  .00001524  00000+0  14194-3 0  9995
2 26998  74.0681 256.2585 0000520 356.4868   3.6313 14.95270460329246
CORIOLIS                
1 27640U 03001A   26158.26160080  .00000120  00000+0  77032-4 0  9993
2 27640  98.7127 165.2980 0012928 239.2827 120.7076 14.19942145212818
SORCE                   
1 27651U 03004A   26157.91161892  .00003313  00000+0  24784-3 0  9993
2 27651  39.9919 320.3020 0017996 334.2309  25.7588 15.03657674270355
MOST                    
1 27843U 03031D   26158.28533907  .00000082  00000+0  57857-4 0  9995
2 27843  98.7045 166.1494 0008703 282.7961  77.2243 14.21320517189305
SCISAT 1                
1 27858U 03036A   26158.36627781  .00000636  00000+0  85846-4 0  9993
2 27858  73.9288 190.8558 0008697 259.6812 100.3384 14.81438347229991
SWIFT                   
1 28485U 04047A   26157.62516102  .00061964  00000+0  53892-3 0  9991
2 28485  20.5528 266.3162 0002758 138.0120 222.0537 15.67271412185207
HINODE (SOLAR-B)        
1 29479U 06041A   26158.37434896  .00000901  00000+0  16316-3 0  9997
2 29479  98.0549 174.6715 0016484 323.3609  36.6468 14.68609933 53435
SHIJIAN-6 02A (SJ-6 02A)
1 29505U 06046A   26158.52647231  .00008515  00000+0  43625-3 0  9990
2 29505  97.6362 199.5219 0003608 147.3518 212.7938 15.16832029 70802
SHIJIAN-6 02B (SJ-6 02B)
1 29506U 06046B   26158.54914161  .00001993  00000+0  15908-3 0  9998
2 29506  97.7161 187.6676 0014648  88.2454 272.0447 15.01353936 69298
FGRST (GLAST)           
1 33053U 08029A   26158.01383395  .00004022  00000+0  14818-3 0  9999
2 33053  25.5828 275.1197 0007946 203.3303 156.6875 15.23896535994285
SDO                     
1 36395U 10005A   26157.34396931 -.00000062  00000+0  00000+0 0  9998
2 36395  34.6287  86.5080 0001398  50.1694 139.9279  1.00271136 59950
CRYOSAT 2               
1 36508U 10013A   26158.50159176  .00000161  00000+0  39200-4 0  9998
2 36508  92.0348 274.9478 0002240  85.9077 274.2386 14.51896494856670
X-SAT                   
1 37389U 11015C   26158.53718179  .00000193  00000+0  99644-4 0  9999
2 37389  98.3512 136.0209 0014597  16.4190 343.7460 14.25203706786309
GCOM-W1 (SHIZUKU)       
1 38337U 12025A   26158.29288491  .00000579  00000+0  13845-3 0  9993
2 38337  98.2019  98.9985 0001873  82.7937  36.6563 14.57115720747592
NUSTAR                  
1 38358U 12031A   26158.50004630  .00013302  00000+0  76809-3 0  9995
2 38358   6.0267 106.7897 0008750 315.1902 293.4011 15.08709964  1302
NEOSSAT                 
1 39089U 13009D   26158.24433363  .00000158  00000+0  69371-4 0  9995
2 39089  98.4176 338.5137 0009787 277.0304  82.9769 14.35822976695312
BRITE-AUSTRIA           
1 39091U 13009F   26158.24790477  .00000204  00000+0  84090-4 0  9997
2 39091  98.3993 337.9300 0008957 270.0657  89.9503 14.36538233695626
IRIS                    
1 39197U 13033A   26158.26569855  .00001270  00000+0  15147-3 0  9997
2 39197  97.9336 357.5739 0024301 354.9834   5.1134 14.85866069698902
HISAKI (SPRINT-A)       
1 39253U 13049A   26157.96491177  .00000133  00000+0  90621-4 0  9992
2 39253  29.7209 271.9834 0136919 294.0150  64.6144 13.55543584630037
CASSIOPE                
1 39265U 13055A   26158.18705720  .00042771 -56162-6  47208-3 0  9993
2 39265  80.9144  78.8554 0296127  95.9700 267.5362 15.24289574666148
STSAT-3                 
1 39422U 13066G   26158.52422118  .00003766  00000+0  28632-3 0  9998
2 39422  97.6215 128.5687 0010905  70.4978 289.7424 15.02698749682754
SWARM B                 
1 39451U 13067A   26158.24813594  .00003824  00000+0  13675-3 0  9998
2 39451  87.7442 345.3372 0003410  91.2356 268.9284 15.28490993681720
